[{"OBJECT_NAME":"EOSSAT-1","OBJECT_ID":"2023-001AW","EPOCH":"2026-03-09T17:40:07.010400","MEAN_MOTION":15.32339828,"ECCENTRICITY":0.00112629,"INCLINATION":97.3357,"RA_OF_ASC_NODE":130.2294,"ARG_OF_PERICENTER":110.3168,"MEAN_ANOMALY":249.9285,"EPHEMERIS_TYPE":0,"CLASSIFICATION_TYPE":"U","NORAD_CAT_ID":55053,"ELEMENT_SET_NO":999,"REV_AT_EPOCH":17668,"BSTAR":0.00024844399,"MEAN_MOTION_DOT":7.695e-5,"MEAN_MOTION_DDOT":0},{"OBJECT_NAME":"STARLINK-34999","OBJECT_ID":"2025-176AA","EPOCH":"2026-03-09T11:22:30.515520","MEAN_MOTION":15.3020511,"ECCENTRICITY":0.00013076,"INCLINATION":53.1599,"RA_OF_ASC_NODE":153.9922,"ARG_OF_PERICENTER":105.6394,"MEAN_ANOMALY":254.4751,"EPHEMERIS_TYPE":0,"CLASSIFICATION_TYPE":"U","NORAD_CAT_ID":65222,"ELEMENT_SET_NO":999,"REV_AT_EPOCH":3308,"BSTAR":0.00053500847,"MEAN_MOTION_DOT":0.00015522,"MEAN_MOTION_DDOT":0}]
